NORAD_CAT_ID,OBJECT_NAME,OBJECT_TYPE,EPOCH,MEAN_MOTION,ECCENTRICITY,INCLINATION,RA_OF_ASC_NODE,ARG_OF_PERICENTER,MEAN_ANOMALY,BSTAR,MEAN_MOTION_DOT,MEAN_MOTION_DDOT,TLE_LINE0,TLE_LINE1,TLE_LINE2,SEMIMAJOR_AXIS,PERIOD,APOGEE,PERIGEE,DECAYED
52331.0,STARLINK-3889,PAYLOAD,2023-07-04 00:33:16,15.08836806,9.3e-05,53.2179,287.0168,84.1833,275.9266,-3.5785e-06,-3.45e-06,0.0,0 STARLINK-3889,1 52331U 22045A   23185.02310734 -.00000345  00000-0 -35785-5 0  9993,2 52331  53.2179 287.0168 0000930  84.1833 275.9266 15.08836806 67740,6917.89,95.438,540.399,539.112,0.0
52331.0,STARLINK-3889,PAYLOAD,2023-07-05 06:45:36,15.08838981,8.14e-05,53.2175,281.3673,90.6858,269.4227,-3.3524e-06,-3.41e-06,0.0,0 STARLINK-3889,1 52331U 22045A   23186.28166939 -.00000341  00000-0 -33524-5 0  9993,2 52331  53.2175 281.3673 0000814  90.6858 269.4227 15.08838981 67936,6917.884,95.438,540.312,539.185,0.0
52331.0,STARLINK-3889,PAYLOAD,2023-07-06 12:57:55,15.08842433,6.63e-05,53.2176,275.7193,87.502,272.6048,0.00021636,3.158e-05,0.0,0 STARLINK-3889,1 52331U 22045A   23187.54022489  .00003158  00000-0  21636-3 0  9990,2 52331  53.2176 275.7193 0000663  87.5020 272.6048 15.08842433 68125,6917.873,95.437,540.197,539.279,0.0
52331.0,STARLINK-3889,PAYLOAD,2023-07-07 09:37:57,15.08833412,7.12e-05,53.218,271.8526,84.7221,275.3852,3.4611e-05,2.63e-06,0.0,0 STARLINK-3889,1 52331U 22045A   23188.40135491  .00000263  00000-0  34611-4 0  9996,2 52331  53.2180 271.8526 0000712  84.7221 275.3852 15.08833412 68258,6917.901,95.438,540.258,539.273,0.0
52331.0,STARLINK-3889,PAYLOAD,2023-07-08 06:17:57,15.0884052,7.89e-05,53.2174,267.987,84.4041,275.7041,3.0973e-05,2.05e-06,0.0,0 STARLINK-3889,1 52331U 22045A   23189.26246799  .00000205  00000-0  30973-4 0  9998,2 52331  53.2174 267.9870 0000789  84.4041 275.7041 15.08840520 68386,6917.879,95.438,540.29,539.198,0.0
52331.0,STARLINK-3889,PAYLOAD,2023-07-09 04:33:21,15.08830565,7.04e-05,53.2173,263.8235,89.3416,270.7657,6.5964e-05,7.62e-06,0.0,0 STARLINK-3889,1 52331U 22045A   23190.18983507  .00000762  00000-0  65964-4 0  9992,2 52331  53.2173 263.8235 0000704  89.3416 270.7657 15.08830565 68524,6917.909,95.438,540.261,539.287,0.0
52331.0,STARLINK-3889,PAYLOAD,2023-07-10 10:45:41,15.08841739,7.69e-05,53.2158,258.1724,66.0419,294.0654,0.00019116,2.756e-05,0.0,0 STARLINK-3889,1 52331U 22045A   23191.44839669  .00002756  00000-0  19116-3 0  9993,2 52331  53.2158 258.1724 0000769  66.0419 294.0654 15.08841739 68715,6917.875,95.437,540.272,539.208,0.0
52331.0,STARLINK-3889,PAYLOAD,2023-07-11 15:22:37,15.0885144,9.13e-05,53.216,252.8202,67.2839,292.825,0.00032417,4.877e-05,0.0,0 STARLINK-3889,1 52331U 22045A   23192.64071285  .00004877  00000-0  32417-3 0  9993,2 52331  53.2160 252.8202 0000913  67.2839 292.8250 15.08851440 68897,6917.845,95.437,540.342,539.079,0.0
52331.0,STARLINK-3889,PAYLOAD,2023-07-12 10:27:15,15.08843248,9.53e-05,53.2162,249.2516,69.5296,290.5799,5.8474e-05,6.43e-06,0.0,0 STARLINK-3889,1 52331U 22045A   23193.43559448  .00000643  00000-0  58474-4 0  9992,2 52331  53.2162 249.2516 0000953  69.5296 290.5799 15.08843248 69018,6917.87,95.437,540.395,539.076,0.0
52331.0,STARLINK-3889,PAYLOAD,2023-07-13 10:18:02,15.0883854,0.000102,53.217,244.7904,81.096,279.0148,-2.364e-05,-6.64e-06,0.0,0 STARLINK-3889,1 52331U 22045A   23194.42919663 -.00000664  00000-0 -23640-4 0  9993,2 52331  53.2170 244.7904 0001020  81.0960 279.0148 15.08838540 69166,6917.885,95.438,540.455,539.044,0.0
52331.0,STARLINK-3889,PAYLOAD,2023-07-15 02:02:41,15.08840038,9.41e-05,53.2169,237.3575,85.6281,274.4819,0.00012701,1.734e-05,0.0,0 STARLINK-3889,1 52331U 22045A   23196.08519808  .00001734  00000-0  12701-3 0  9996,2 52331  53.2169 237.3575 0000941  85.6281 274.4819 15.08840038 69410,6917.88,95.438,540.396,539.094,0.0
52331.0,STARLINK-3889,PAYLOAD,2023-07-15 19:31:55,15.08837921,9.49e-05,53.2166,234.0863,84.9862,275.1239,0.00010516,1.386e-05,0.0,0 STARLINK-3889,1 52331U 22045A   23196.81384141  .00001386  00000-0  10516-3 0  9992,2 52331  53.2166 234.0863 0000949  84.9862 275.1239 15.08837921 69529,6917.887,95.438,540.408,539.095,0.0
52331.0,STARLINK-3889,PAYLOAD,2023-07-17 01:44:15,15.08841295,0.0001029,53.2172,228.4357,82.7704,277.3405,7.4552e-05,8.99e-06,0.0,0 STARLINK-3889,1 52331U 22045A   23198.07240251  .00000899  00000-0  74552-4 0  9994,2 52331  53.2172 228.4357 0001029  82.7704 277.3405 15.08841295 69711,6917.876,95.437,540.453,539.03,0.0
52331.0,STARLINK-3889,PAYLOAD,2023-07-18 11:07:21,15.08845566,9.17e-05,53.2164,222.1913,81.179,278.9306,0.00013615,1.88e-05,0.0,0 STARLINK-3889,1 52331U 22045A   23199.46343759  .00001880  00000-0  13615-3 0  9998,2 52331  53.2164 222.1913 0000917  81.1790 278.9306 15.08845566 69929,6917.863,95.437,540.363,539.094,0.0
52331.0,STARLINK-3889,PAYLOAD,2023-07-19 07:47:22,15.08839678,9.58e-05,53.2164,218.3255,83.9617,276.1484,2.3152e-05,8.1e-07,0.0,0 STARLINK-3889,1 52331U 22045A   23200.32456342  .00000081  00000-0  23152-4 0  9999,2 52331  53.2164 218.3255 0000958  83.9617 276.1484 15.08839678 70058,6917.881,95.438,540.409,539.084,0.0
52331.0,STARLINK-3889,PAYLOAD,2023-07-21 01:07:23,15.08836318,9.87e-05,53.2164,210.5941,86.9522,273.1583,5.2704e-05,5.51e-06,0.0,0 STARLINK-3889,1 52331U 22045A   23202.04680435  .00000551  00000-0  52704-4 0  9999,2 52331  53.2164 210.5941 0000987  86.9522 273.1583 15.08836318 70318,6917.892,95.438,540.439,539.074,0.0
52331.0,STARLINK-3889,PAYLOAD,2023-07-24 11:47:27,15.08838615,0.0001091,53.2167,195.1307,86.302,273.8097,2.7165e-05,1.45e-06,0.0,0 STARLINK-3889,1 52331U 22045A   23205.49128835  .00000145  00000-0  27165-4 0  9994,2 52331  53.2167 195.1307 0001091  86.3020 273.8097 15.08838615 70835,6917.885,95.438,540.504,538.995,0.0
52331.0,STARLINK-3889,PAYLOAD,2023-07-25 08:27:29,15.08821364,0.0001992,53.2168,191.262,160.2088,199.8982,-0.00020757,-3.588e-05,0.0,0 STARLINK-3889,1 52331U 22045A   23206.35242184 -.00003588  00000-0 -20757-3 0  9999,2 52331  53.2168 191.2620 0001992 160.2088 199.8982 15.08821364 70964,6917.937,95.439,541.18,538.424,0.0
52331.0,STARLINK-3889,PAYLOAD,2023-07-26 09:53:37,15.08844602,0.0001391,53.2162,186.5072,87.1681,272.947,8.3258e-05,1.038e-05,0.0,0 STARLINK-3889,1 52331U 22045A   23207.41224475  .00001038  00000-0  83258-4 0  9992,2 52331  53.2162 186.5072 0001391  87.1681 272.9470 15.08844602 71129,6917.866,95.437,540.694,538.769,0.0
52331.0,STARLINK-3889,PAYLOAD,2023-07-27 01:47:29,15.08956329,9.01e-05,53.2169,183.5329,60.6904,299.4178,-0.0014112,-0.00022748,0.0,0 STARLINK-3889,1 52331U 22045A   23208.07464314 -.00022748  00000-0 -14112-2 0  9997,2 52331  53.2169 183.5329 0000901  60.6904 299.4178 15.08956329 71228,6917.525,95.43,540.013,538.767,0.0
52331.0,STARLINK-3889,PAYLOAD,2023-07-27 08:09:01,15.08814597,0.0001369,53.2167,182.3437,99.6395,260.4752,0.00048664,7.46e-05,0.0,0 STARLINK-3889,1 52331U 22045A   23208.33960633  .00007460  00000-0  48664-3 0  9993,2 52331  53.2167 182.3437 0001369  99.6395 260.4752 15.08814597 71268,6917.958,95.439,540.77,538.876,0.0
52331.0,STARLINK-3889,PAYLOAD,2023-07-28 09:35:12,15.08834241,0.0001272,53.2172,177.5864,101.6884,258.4251,-3.6312e-05,-8.66e-06,0.0,0 STARLINK-3889,1 52331U 22045A   23209.39945445 -.00000866  00000-0 -36312-4 0  9997,2 52331  53.2172 177.5864 0001272 101.6884 258.4251 15.08834241 71421,6917.898,95.438,540.643,538.883,0.0
52331.0,STARLINK-3889,PAYLOAD,2023-07-29 04:39:50,15.08840682,0.0001169,53.2174,174.0189,95.1567,264.9558,1.8785e-05,1.1e-07,0.0,0 STARLINK-3889,1 52331U 22045A   23210.19433223  .00000011  00000-0  18785-4 0  9997,2 52331  53.2174 174.0189 0001169  95.1567 264.9558 15.08840682 71546,6917.878,95.438,540.552,538.935,0.0
52331.0,STARLINK-3889,PAYLOAD,2023-07-30 07:41:23,15.08840613,0.0001258,53.2175,168.9641,99.7641,260.3493,0.00015129,2.121e-05,0.0,0 STARLINK-3889,1 52331U 22045A   23211.32041307  .00002121  00000-0  15129-3 0  9993,2 52331  53.2175 168.9641 0001258  99.7641 260.3493 15.08840613 71715,6917.879,95.438,540.614,538.873,0.0
52331.0,STARLINK-3889,PAYLOAD,2023-07-31 01:10:38,15.08835362,0.0001312,53.2181,165.6937,103.0646,257.0493,2.4455e-05,1.01e-06,0.0,0 STARLINK-3889,1 52331U 22045A   23212.04906217  .00000101  00000-0  24455-4 0  9992,2 52331  53.2181 165.6937 0001312 103.0646 257.0493 15.08835362 71829,6917.895,95.438,540.667,538.852,0.0
52331.0,STARLINK-3889,PAYLOAD,2023-08-01 02:36:48,15.08842898,0.0001189,53.2167,160.9337,97.1702,262.9425,5.0701e-05,5.19e-06,0.0,0 STARLINK-3889,1 52331U 22045A   23213.10889828  .00000519  00000-0  50701-4 0  9994,2 52331  53.2167 160.9337 0001189  97.1702 262.9425 15.08842898 71982,6917.872,95.437,540.559,538.914,0.0
52331.0,STARLINK-3889,PAYLOAD,2023-08-02 00:52:13,15.08838536,0.0001195,53.2169,156.7706,101.6087,258.5039,9.9904e-06,-1.29e-06,0.0,0 STARLINK-3889,1 52331U 22045A   23214.03626317 -.00000129  00000-0  99904-5 0  9996,2 52331  53.2169 156.7706 0001195 101.6087 258.5039 15.08838536 72124,6917.885,95.438,540.577,538.923,0.0
52331.0,STARLINK-3889,PAYLOAD,2023-08-02 05:38:22,15.08844617,0.0001185,53.217,155.8787,102.1792,257.9332,7.5173e-05,9.09e-06,0.0,0 STARLINK-3889,1 52331U 22045A   23214.23497738  .00000909  00000-0  75173-4 0  9997,2 52331  53.2170 155.8787 0001185 102.1792 257.9332 15.08844617 72152,6917.866,95.437,540.551,538.912,0.0
52331.0,STARLINK-3889,PAYLOAD,2023-08-02 13:35:18,15.08839746,0.0001219,53.2174,154.3902,95.3319,264.7812,5.8741e-05,6.47e-06,0.0,0 STARLINK-3889,1 52331U 22045A   23214.56618129  .00000647  00000-0  58741-4 0  9993,2 52331  53.2174 154.3902 0001219  95.3319 264.7812 15.08839746 72207,6917.881,95.438,540.589,538.903,0.0
52331.0,STARLINK-3889,PAYLOAD,2023-08-03 02:18:22,15.08850452,0.0001166,53.2169,152.013,92.6548,267.4578,5.5207e-05,5.91e-06,0.0,0 STARLINK-3889,1 52331U 22045A   23215.09609547  .00000591  00000-0  55207-4 0  9998,2 52331  53.2169 152.0130 0001166  92.6548 267.4578 15.08850452 72288,6917.848,95.437,540.52,538.907,0.0
